{"type": "FeatureCollection", "features": [{"type": "Feature", "geometry": {"type": "Polygon", "coordinates": [[[120.977228, 24.791858], [120.976499, 24.791821], [120.976824, 24.791477], [120.976801, 24.79051], [120.977314, 24.790373], [120.978172, 24.78993], [120.978367, 24.790263], [120.978574, 24.790597], [120.978876, 24.790725], [120.979289, 24.790605], [120.97935, 24.790429], [120.979345, 24.790167], [120.979379, 24.789846], [120.980524, 24.789532], [120.980497, 24.7889], [120.981869, 24.788661], [120.982355, 24.788854], [120.982656, 24.788783], [120.983084, 24.788796], [120.984091, 24.789056], [120.984992, 24.789025], [120.985711, 24.78947], [120.986815, 24.789619], [120.986962, 24.790243], [120.987169, 24.790496], [120.987222, 24.790618], [120.98728, 24.790728], [120.987427, 24.790872], [120.987621, 24.791204], [120.987858, 24.791367], [120.987845, 24.791529], [120.987832, 24.79168], [120.987824, 24.791781], [120.987861, 24.791806], [120.987969, 24.79188], [120.988014, 24.791943], [120.988101, 24.792066], [120.98814, 24.792121], [120.988344, 24.792063], [120.988438, 24.792036], [120.988552, 24.792022], [120.98862, 24.792013], [120.988731, 24.792052], [120.988737, 24.792053], [120.988741, 24.792053], [120.988745, 24.792054], [120.988749, 24.792056], [120.988798, 24.792077], [120.988787, 24.792264], [120.98874, 24.792357], [120.988692, 24.792452], [120.988651, 24.792533], [120.988681, 24.792614], [120.988708, 24.792685], [120.988773, 24.792736], [120.988849, 24.792795], [120.988905, 24.792839], [120.988898, 24.793018], [120.988896, 24.793067], [120.988853, 24.793132], [120.988778, 24.793243], [120.988713, 24.793339], [120.988657, 24.793384], [120.988433, 24.79356], [120.988417, 24.793679], [120.988491, 24.793867], [120.989148, 24.794167], [120.989239, 24.794703], [120.987585, 24.794865], [120.987656, 24.795478], [120.986706, 24.795503], [120.986589, 24.795382], [120.986446, 24.79541], [120.986141, 24.795286], [120.986093, 24.795341], [120.985758, 24.79517], [120.985615, 24.795363], [120.984698, 24.795026], [120.984796, 24.794791], [120.984692, 24.794462], [120.984564, 24.794168], [120.984263, 24.794009], [120.984106, 24.793985], [120.983972, 24.794012], [120.983795, 24.794202], [120.983722, 24.794334], [120.983687, 24.794487], [120.983687, 24.794673], [120.983527, 24.794616], [120.982518, 24.793711], [120.982333, 24.793579], [120.981528, 24.792974], [120.981372, 24.792938], [120.981208, 24.792899], [120.980261, 24.792586], [120.979863, 24.792454], [120.978688, 24.792132], [120.977924, 24.792148], [120.977561, 24.792064], [120.977228, 24.791858]]]}, "properties": {"name": "十八尖山公園"}}]}