{"type": "FeatureCollection", "name": "十八尖山設施點位（資料 © OpenStreetMap 貢獻者，ODbL）", "features": [{"type": "Feature", "geometry": {"type": "Point", "coordinates": [120.98681, 24.79547]}, "properties": {"type": "entrance", "name": "博愛街入口", "note": "主要入口，鄰近博愛街停車場與 YouBike", "sourceType": "estimated"}}, {"type": "Feature", "geometry": {"type": "Point", "coordinates": [120.981396, 24.788673]}, "properties": {"type": "entrance", "name": "寶山路入口", "note": "鄰近防空洞步道與桐花步道", "sourceType": "estimated"}}, {"type": "Feature", "geometry": {"type": "Point", "coordinates": [120.984201, 24.791649]}, "properties": {"type": "toilet", "name": "公廁", "note": "", "sourceType": "osm"}}, {"type": "Feature", "geometry": {"type": "Point", "coordinates": [120.986874, 24.794731]}, "properties": {"type": "toilet", "name": "公廁", "note": "", "sourceType": "osm"}}, {"type": "Feature", "geometry": {"type": "Point", "coordinates": [120.985485, 24.793363]}, "properties": {"type": "pavilion", "name": "幸福亭", "note": "", "sourceType": "osm"}}, {"type": "Feature", "geometry": {"type": "Point", "coordinates": [120.980146, 24.791666]}, "properties": {"type": "pavilion", "name": "愛林亭", "note": "", "sourceType": "osm"}}, {"type": "Feature", "geometry": {"type": "Point", "coordinates": [120.979801, 24.790555]}, "properties": {"type": "toilet", "name": "公廁", "note": "", "sourceType": "osm"}}, {"type": "Feature", "geometry": {"type": "Point", "coordinates": [120.984943, 24.791591]}, "properties": {"type": "pavilion", "name": "梅花亭", "note": "", "sourceType": "osm"}}, {"type": "Feature", "geometry": {"type": "Point", "coordinates": [120.98531, 24.792928]}, "properties": {"type": "pavilion", "name": "介壽亭", "note": "", "sourceType": "osm"}}, {"type": "Feature", "geometry": {"type": "Point", "coordinates": [120.984299, 24.79234]}, "properties": {"type": "pavilion", "name": "觀音亭", "note": "", "sourceType": "osm"}}, {"type": "Feature", "geometry": {"type": "Point", "coordinates": [120.984607, 24.792532]}, "properties": {"type": "peak", "name": "十八尖山", "note": "標高約 129.91 公尺", "sourceType": "osm"}}, {"type": "Feature", "geometry": {"type": "Point", "coordinates": [120.984678, 24.792513]}, "properties": {"type": "pavilion", "name": "國父百年誕辰紀念亭", "note": "", "sourceType": "osm"}}, {"type": "Feature", "geometry": {"type": "Point", "coordinates": [120.988056, 24.792423]}, "properties": {"type": "peak", "name": "十八尖山東峰", "note": "標高約 111.84 公尺", "sourceType": "osm"}}, {"type": "Feature", "geometry": {"type": "Point", "coordinates": [120.987792, 24.789951]}, "properties": {"type": "viewpoint", "name": "光明頂", "note": "", "sourceType": "osm"}}, {"type": "Feature", "geometry": {"type": "Point", "coordinates": [120.987223, 24.790737]}, "properties": {"type": "water", "name": "飲水機", "note": "", "sourceType": "osm"}}, {"type": "Feature", "geometry": {"type": "Point", "coordinates": [120.985289, 24.793089]}, "properties": {"type": "water", "name": "飲水機", "note": "", "sourceType": "osm"}}, {"type": "Feature", "geometry": {"type": "Point", "coordinates": [120.983985, 24.792807]}, "properties": {"type": "pavilion", "name": "瞭望台", "note": "", "sourceType": "osm"}}, {"type": "Feature", "geometry": {"type": "Point", "coordinates": [120.983641, 24.791706]}, "properties": {"type": "pavilion", "name": "簡易涼亭", "note": "", "sourceType": "osm"}}, {"type": "Feature", "geometry": {"type": "Point", "coordinates": [120.980564, 24.790795]}, "properties": {"type": "pavilion", "name": "涼亭", "note": "", "sourceType": "osm"}}, {"type": "Feature", "geometry": {"type": "Point", "coordinates": [120.981292, 24.790547]}, "properties": {"type": "pavilion", "name": "快樂健身亭", "note": "", "sourceType": "osm"}}, {"type": "Feature", "geometry": {"type": "Point", "coordinates": [120.980139, 24.791474]}, "properties": {"type": "water", "name": "飲水機", "note": "", "sourceType": "osm"}}, {"type": "Feature", "geometry": {"type": "Point", "coordinates": [120.989768, 24.79534]}, "properties": {"type": "water", "name": "飲水機", "note": "", "sourceType": "osm"}}, {"type": "Feature", "geometry": {"type": "Point", "coordinates": [120.982649, 24.788997]}, "properties": {"type": "water", "name": "飲水機", "note": "", "sourceType": "osm"}}, {"type": "Feature", "geometry": {"type": "Point", "coordinates": [120.988619, 24.792591]}, "properties": {"type": "water", "name": "飲水機", "note": "", "sourceType": "osm"}}, {"type": "Feature", "geometry": {"type": "Point", "coordinates": [120.9848, 24.791044]}, "properties": {"type": "water", "name": "飲水機", "note": "", "sourceType": "osm"}}, {"type": "Feature", "geometry": {"type": "Point", "coordinates": [120.980541, 24.790843]}, "properties": {"type": "water", "name": "飲水機", "note": "", "sourceType": "osm"}}, {"type": "Feature", "geometry": {"type": "Point", "coordinates": [120.980415, 24.791509]}, "properties": {"type": "water", "name": "飲水機", "note": "", "sourceType": "osm"}}, {"type": "Feature", "geometry": {"type": "Point", "coordinates": [120.980252, 24.791577]}, "properties": {"type": "water", "name": "飲水機", "note": "", "sourceType": "osm"}}, {"type": "Feature", "geometry": {"type": "Point", "coordinates": [120.980617, 24.790755]}, "properties": {"type": "pavilion", "name": "松柏亭", "note": "", "sourceType": "osm"}}, {"type": "Feature", "geometry": {"type": "Point", "coordinates": [120.985276, 24.793079]}, "properties": {"type": "water", "name": "飲水機", "note": "", "sourceType": "osm"}}, {"type": "Feature", "geometry": {"type": "Point", "coordinates": [120.985265, 24.793069]}, "properties": {"type": "water", "name": "飲水機", "note": "", "sourceType": "osm"}}, {"type": "Feature", "geometry": {"type": "Point", "coordinates": [120.985254, 24.793059]}, "properties": {"type": "water", "name": "飲水機", "note": "", "sourceType": "osm"}}, {"type": "Feature", "geometry": {"type": "Point", "coordinates": [120.984817, 24.790754]}, "properties": {"type": "pavilion", "name": "長春亭", "note": "", "sourceType": "osm"}}, {"type": "Feature", "geometry": {"type": "Point", "coordinates": [120.984711, 24.790938]}, "properties": {"type": "water", "name": "飲水機", "note": "", "sourceType": "osm"}}, {"type": "Feature", "geometry": {"type": "Point", "coordinates": [120.983702, 24.791732]}, "properties": {"type": "water", "name": "飲水機", "note": "", "sourceType": "osm"}}, {"type": "Feature", "geometry": {"type": "Point", "coordinates": [120.983869, 24.791745]}, "properties": {"type": "pavilion", "name": "涼亭", "note": "", "sourceType": "osm"}}, {"type": "Feature", "geometry": {"type": "Point", "coordinates": [120.981483, 24.790571]}, "properties": {"type": "water", "name": "飲水機", "note": "", "sourceType": "osm"}}, {"type": "Feature", "geometry": {"type": "Point", "coordinates": [120.981905, 24.790601]}, "properties": {"type": "pavilion", "name": "益壽亭", "note": "", "sourceType": "osm"}}, {"type": "Feature", "geometry": {"type": "Point", "coordinates": [120.978368, 24.791544]}, "properties": {"type": "moto-parking", "name": "機車停車區", "note": "", "sourceType": "osm"}}, {"type": "Feature", "geometry": {"type": "Point", "coordinates": [120.982749, 24.788846]}, "properties": {"type": "toilet", "name": "公廁", "note": "", "sourceType": "osm"}}, {"type": "Feature", "geometry": {"type": "Point", "coordinates": [120.982783, 24.788849]}, "properties": {"type": "pavilion", "name": "涼亭", "note": "", "sourceType": "osm"}}, {"type": "Feature", "geometry": {"type": "Point", "coordinates": [120.9886, 24.792477]}, "properties": {"type": "water", "name": "飲水機", "note": "", "sourceType": "osm"}}, {"type": "Feature", "geometry": {"type": "Point", "coordinates": [120.979639, 24.791493]}, "properties": {"type": "pavilion", "name": "涼亭", "note": "", "sourceType": "osm"}}, {"type": "Feature", "geometry": {"type": "Point", "coordinates": [120.981632, 24.790686]}, "properties": {"type": "pavilion", "name": "涼亭", "note": "", "sourceType": "osm"}}, {"type": "Feature", "geometry": {"type": "Point", "coordinates": [120.97905, 24.790837]}, "properties": {"type": "pavilion", "name": "涼亭", "note": "", "sourceType": "osm"}}, {"type": "Feature", "geometry": {"type": "Point", "coordinates": [120.979887, 24.79513]}, "properties": {"type": "youbike", "name": "YouBike 新竹高中", "note": "", "sourceType": "osm"}}, {"type": "Feature", "geometry": {"type": "Point", "coordinates": [120.986802, 24.797146]}, "properties": {"type": "youbike", "name": "YouBike 新竹高商(一)", "note": "", "sourceType": "osm"}}, {"type": "Feature", "geometry": {"type": "Point", "coordinates": [120.986716, 24.797115]}, "properties": {"type": "youbike", "name": "YouBike 新竹高商(二)", "note": "", "sourceType": "osm"}}, {"type": "Feature", "geometry": {"type": "Point", "coordinates": [120.982519, 24.788711]}, "properties": {"type": "parking", "name": "十八尖山、高峰植物園大客車停車場", "note": "", "sourceType": "osm"}}, {"type": "Feature", "geometry": {"type": "Point", "coordinates": [120.98689, 24.795202]}, "properties": {"type": "parking", "name": "十八尖山博愛街停車場", "note": "", "sourceType": "osm"}}, {"type": "Feature", "geometry": {"type": "Point", "coordinates": [120.982998, 24.787825]}, "properties": {"type": "parking", "name": "高峰植物園停車場", "note": "", "sourceType": "osm"}}]}