{"type": "FeatureCollection", "name": "十八尖山步道（資料 © OpenStreetMap 貢獻者，ODbL）", "features": [{"type": "Feature", "geometry": {"type": "LineString", "coordinates": [[120.986707, 24.794857], [120.986745, 24.79476], [120.98676, 24.794742], [120.986813, 24.794677], [120.986857, 24.794601], [120.986843, 24.794503], [120.986758, 24.794437], [120.986721, 24.794343], [120.986733, 24.794254], [120.986804, 24.794169], [120.98692, 24.794048], [120.986938, 24.793955], [120.986926, 24.793866], [120.986906, 24.793812], [120.986898, 24.793793], [120.986876, 24.793759], [120.986821, 24.793681], [120.986735, 24.793567], [120.986708, 24.793457]]}, "properties": {"name": "十八尖山步道", "kind": "main", "highway": "pedestrian"}}, {"type": "Feature", "geometry": {"type": "LineString", "coordinates": [[120.9772, 24.791892], [120.977543, 24.792086], [120.977979, 24.79218], [120.978689, 24.792165], [120.9792, 24.792312], [120.979903, 24.792526]]}, "properties": {"name": "", "kind": "path", "highway": "path"}}, {"type": "Feature", "geometry": {"type": "LineString", "coordinates": [[120.980461, 24.79145], [120.98029, 24.791284], [120.980118, 24.791156]]}, "properties": {"name": "", "kind": "path", "highway": "path"}}, {"type": "Feature", "geometry": {"type": "LineString", "coordinates": [[120.985447, 24.793271], [120.98543, 24.79334], [120.985431, 24.793402], [120.985509, 24.793442], [120.985557, 24.79342], [120.985565, 24.793373], [120.985525, 24.793332], [120.985447, 24.793271], [120.985399, 24.793185], [120.98537, 24.793082]]}, "properties": {"name": "", "kind": "path", "highway": "footway"}}, {"type": "Feature", "geometry": {"type": "LineString", "coordinates": [[120.985557, 24.79342], [120.985955, 24.793754], [120.986048, 24.794107], [120.986078, 24.794222], [120.986136, 24.794555], [120.986473, 24.794989], [120.986495, 24.795017], [120.986519, 24.795045], [120.98656, 24.795041], [120.986653, 24.795029]]}, "properties": {"name": "", "kind": "steps", "highway": "steps"}}, {"type": "Feature", "geometry": {"type": "LineString", "coordinates": [[120.985389, 24.791459], [120.985431, 24.791462], [120.985517, 24.791499], [120.985526, 24.791638]]}, "properties": {"name": "", "kind": "steps", "highway": "steps"}}, {"type": "Feature", "geometry": {"type": "LineString", "coordinates": [[120.98455, 24.791997], [120.984491, 24.791963], [120.984378, 24.791908], [120.984151, 24.791829]]}, "properties": {"name": "", "kind": "steps", "highway": "steps"}}, {"type": "Feature", "geometry": {"type": "LineString", "coordinates": [[120.984094, 24.791629], [120.984151, 24.791829], [120.984274, 24.792189], [120.984244, 24.79235], [120.984237, 24.792374], [120.984225, 24.792397], [120.984187, 24.792445], [120.984086, 24.79256], [120.984065, 24.792594], [120.984097, 24.792694], [120.984158, 24.792766], [120.984245, 24.792842], [120.984798, 24.793126], [120.984905, 24.793268], [120.984915, 24.79338], [120.984803, 24.79367], [120.984749, 24.793879], [120.985059, 24.794045], [120.98508, 24.79432], [120.985306, 24.794475], [120.985379, 24.794471], [120.98545, 24.794417], [120.985515, 24.794376], [120.985609, 24.794372], [120.985683, 24.794439], [120.985731, 24.794529], [120.985789, 24.794661], [120.985879, 24.79478], [120.985998, 24.794891], [120.986249, 24.795004], [120.98638, 24.795085], [120.986435, 24.795104], [120.986497, 24.795126], [120.986647, 24.795126]]}, "properties": {"name": "變葉木步道", "kind": "path", "highway": "footway"}}, {"type": "Feature", "geometry": {"type": "LineString", "coordinates": [[120.986913, 24.791457], [120.986996, 24.790809]]}, "properties": {"name": "", "kind": "steps", "highway": "steps"}}, {"type": "Feature", "geometry": {"type": "LineString", "coordinates": [[120.981571, 24.789504], [120.981311, 24.790056], [120.981164, 24.790068], [120.981177, 24.789929], [120.981044, 24.789856], [120.980972, 24.789893], [120.980929, 24.789916], [120.98087, 24.789947], [120.980807, 24.790034], [120.980624, 24.790286], [120.980565, 24.790367], [120.980539, 24.790403], [120.980496, 24.790462], [120.98053, 24.79065], [120.980488, 24.790836]]}, "properties": {"name": "十八尖山步道", "kind": "main", "highway": "steps"}}, {"type": "Feature", "geometry": {"type": "LineString", "coordinates": [[120.981396, 24.788673], [120.981403, 24.788714], [120.981454, 24.789021], [120.981469, 24.789113], [120.981485, 24.789225], [120.981516, 24.78944], [120.981571, 24.789504]]}, "properties": {"name": "十八尖山防空洞步道", "kind": "path", "highway": "footway"}}, {"type": "Feature", "geometry": {"type": "LineString", "coordinates": [[120.987173, 24.790754], [120.987171, 24.790705], [120.987151, 24.790659]]}, "properties": {"name": "", "kind": "path", "highway": "footway"}}, {"type": "Feature", "geometry": {"type": "LineString", "coordinates": [[120.98747, 24.789776], [120.987366, 24.789707], [120.987201, 24.789708], [120.987172, 24.789797], [120.987176, 24.789834], [120.987191, 24.789904], [120.98722, 24.789944], [120.987228, 24.790002], [120.98723, 24.790067], [120.987242, 24.79013], [120.987212, 24.790257], [120.987217, 24.790346], [120.987207, 24.790422], [120.987187, 24.79051], [120.987203, 24.790538]]}, "properties": {"name": "清華大學十八尖山小徑", "kind": "path", "highway": "path"}}, {"type": "Feature", "geometry": {"type": "LineString", "coordinates": [[120.986708, 24.793457], [120.986697, 24.793331], [120.986668, 24.79322], [120.986621, 24.793144], [120.98656, 24.793086], [120.986461, 24.792998], [120.986438, 24.792968], [120.98642, 24.792921], [120.986422, 24.792869], [120.986428, 24.792756], [120.986427, 24.792684], [120.986389, 24.792615], [120.986321, 24.792559], [120.986223, 24.792503], [120.986156, 24.792458], [120.986067, 24.792399], [120.985993, 24.792392], [120.985894, 24.792388], [120.985867, 24.792364], [120.985811, 24.792302], [120.985784, 24.792235], [120.985741, 24.792137], [120.985739, 24.79206], [120.985761, 24.792016], [120.985867, 24.792002], [120.98595, 24.791999], [120.986074, 24.792008], [120.986159, 24.792007], [120.986324, 24.792002], [120.986363, 24.791992], [120.986451, 24.791957], [120.986479, 24.791921], [120.986499, 24.791882], [120.986528, 24.791797], [120.986554, 24.791718], [120.986595, 24.7916], [120.986629, 24.791529], [120.986709, 24.791471], [120.986778, 24.791446], [120.986838, 24.791443], [120.986913, 24.791457], [120.986971, 24.791485], [120.987023, 24.791532], [120.987056, 24.791587], [120.987059, 24.791667], [120.987034, 24.791756], [120.987018, 24.791789], [120.986994, 24.791836], [120.986984, 24.791946], [120.986981, 24.792068], [120.987021, 24.792259], [120.987039, 24.792294], [120.987076, 24.792314], [120.987109, 24.79234], [120.98716, 24.792374], [120.987227, 24.792428], [120.98737, 24.792535], [120.98744, 24.792602], [120.987458, 24.792655], [120.98747, 24.792746], [120.9875, 24.792802], [120.987542, 24.792836], [120.987626, 24.792867], [120.987677, 24.79289], [120.987694, 24.792927], [120.98769, 24.79297], [120.987633, 24.793134], [120.987637, 24.793195], [120.987673, 24.793284], [120.987727, 24.793346], [120.987829, 24.793494], [120.987878, 24.793567], [120.98791, 24.793603], [120.987949, 24.793641], [120.987997, 24.793659], [120.98806, 24.793654], [120.988146, 24.793635], [120.988243, 24.793614], [120.988326, 24.793589], [120.988429, 24.793543], [120.988572, 24.793443], [120.988677, 24.793336], [120.988804, 24.793148], [120.988854, 24.793038], [120.988844, 24.79294], [120.988816, 24.792864], [120.988765, 24.792809], [120.988681, 24.792728], [120.988648, 24.792691], [120.988638, 24.792652], [120.988623, 24.792605], [120.988618, 24.792517], [120.98866, 24.792395], [120.988681, 24.792356], [120.988699, 24.792325], [120.988722, 24.792254], [120.988748, 24.792213], [120.988752, 24.792147], [120.988726, 24.792097], [120.988681, 24.792056], [120.988543, 24.792058], [120.98838, 24.792092], [120.988175, 24.792154], [120.98812, 24.792164], [120.988064, 24.792143], [120.987976, 24.792038], [120.987922, 24.791951], [120.987804, 24.791837], [120.98779, 24.791611], [120.987791, 24.791453], [120.98774, 24.79137], [120.987555, 24.791239], [120.987461, 24.791102], [120.987353, 24.790884], [120.987286, 24.790819], [120.987173, 24.790754], [120.987099, 24.790773], [120.986996, 24.790809]]}, "properties": {"name": "十八尖山步道", "kind": "main", "highway": "pedestrian"}}, {"type": "Feature", "geometry": {"type": "LineString", "coordinates": [[120.988163, 24.78967], [120.988104, 24.789751], [120.988126, 24.789808], [120.988183, 24.789874], [120.988301, 24.789926], [120.988494, 24.789962], [120.988518, 24.790069], [120.988526, 24.790138], [120.988523, 24.790166], [120.98868, 24.790227], [120.988758, 24.790283], [120.988771, 24.790324], [120.988735, 24.790368], [120.988716, 24.790381], [120.988703, 24.79039], [120.988608, 24.790484], [120.988508, 24.790533]]}, "properties": {"name": "斑蝶小徑", "kind": "path", "highway": "footway"}}, {"type": "Feature", "geometry": {"type": "LineString", "coordinates": [[120.989018, 24.79161], [120.989047, 24.791753], [120.989059, 24.791837], [120.988996, 24.79206], [120.988988, 24.79216], [120.98898, 24.792235], [120.988902, 24.792357], [120.98877, 24.792525], [120.98876, 24.792614], [120.988958, 24.792773], [120.989009, 24.792898], [120.989025, 24.793049], [120.988934, 24.793161], [120.988792, 24.793312], [120.988709, 24.793446], [120.988647, 24.793574], [120.988508, 24.793687], [120.988433, 24.793772], [120.988465, 24.793872], [120.988561, 24.793911], [120.988709, 24.793923], [120.988899, 24.793964], [120.989234, 24.794167], [120.989361, 24.794332]]}, "properties": {"name": "行勝步道", "kind": "path", "highway": "footway"}}, {"type": "Feature", "geometry": {"type": "LineString", "coordinates": [[120.981854, 24.793049], [120.981744, 24.79296], [120.981701, 24.793005], [120.98181, 24.793093]]}, "properties": {"name": "", "kind": "steps", "highway": "steps"}}, {"type": "Feature", "geometry": {"type": "LineString", "coordinates": [[120.987068, 24.796017], [120.986925, 24.795948], [120.986711, 24.795822], [120.986528, 24.795748], [120.986229, 24.795658], [120.986008, 24.795554], [120.985108, 24.795223], [120.983507, 24.794636], [120.983144, 24.794306], [120.982502, 24.793723], [120.982106, 24.793436], [120.981735, 24.793166], [120.98169, 24.793131], [120.981525, 24.792999], [120.981381, 24.792963], [120.981204, 24.792921], [120.980353, 24.792665], [120.979949, 24.792541], [120.979903, 24.792526]]}, "properties": {"name": "博愛街5巷", "kind": "path", "highway": "service"}}, {"type": "Feature", "geometry": {"type": "LineString", "coordinates": [[120.989734, 24.790424], [120.989769, 24.790454], [120.98979, 24.790472], [120.989813, 24.790503], [120.989828, 24.790573]]}, "properties": {"name": "竹林小徑", "kind": "path", "highway": "footway"}}, {"type": "Feature", "geometry": {"type": "LineString", "coordinates": [[120.988326, 24.793589], [120.98837, 24.793513], [120.988402, 24.793267], [120.988347, 24.793156], [120.988356, 24.793011], [120.988161, 24.792541], [120.98803, 24.792493], [120.987899, 24.79234], [120.9878, 24.792266], [120.987701, 24.792131], [120.987663, 24.79211], [120.987654, 24.791946], [120.98761, 24.791711], [120.987546, 24.791491], [120.987527, 24.791417], [120.987477, 24.791317], [120.98737, 24.791198], [120.987284, 24.791084], [120.987209, 24.791018], [120.987142, 24.791002], [120.987109, 24.790889], [120.987099, 24.790773]]}, "properties": {"name": "", "kind": "path", "highway": "footway"}}, {"type": "Feature", "geometry": {"type": "LineString", "coordinates": [[120.984968, 24.791119], [120.98488, 24.791023], [120.984842, 24.790983], [120.984785, 24.790944]]}, "properties": {"name": "", "kind": "steps", "highway": "steps"}}, {"type": "Feature", "geometry": {"type": "LineString", "coordinates": [[120.984065, 24.792594], [120.984036, 24.792619], [120.984005, 24.792666], [120.983947, 24.792833], [120.983896, 24.792919], [120.983881, 24.792961], [120.98377, 24.792967], [120.983612, 24.793097], [120.98373, 24.79324], [120.983786, 24.793354], [120.983714, 24.793428], [120.983705, 24.793629], [120.983529, 24.79365], [120.983363, 24.79372], [120.983366, 24.793851], [120.983259, 24.794055], [120.983144, 24.794306]]}, "properties": {"name": "", "kind": "steps", "highway": "steps"}}, {"type": "Feature", "geometry": {"type": "LineString", "coordinates": [[120.983353, 24.791905], [120.983562, 24.791824], [120.983696, 24.791795], [120.983755, 24.791795], [120.983746, 24.791716]]}, "properties": {"name": "聯絡步道", "kind": "steps", "highway": "steps"}}, {"type": "Feature", "geometry": {"type": "LineString", "coordinates": [[120.981164, 24.790068], [120.981176, 24.790303], [120.981245, 24.790405], [120.981412, 24.790485], [120.981446, 24.790511], [120.981463, 24.790569], [120.98147, 24.790603]]}, "properties": {"name": "", "kind": "path", "highway": "path"}}, {"type": "Feature", "geometry": {"type": "LineString", "coordinates": [[120.982805, 24.791296], [120.982765, 24.79123], [120.982553, 24.791188], [120.982386, 24.791252], [120.982337, 24.791233], [120.982326, 24.791098], [120.982347, 24.790937], [120.982315, 24.790603], [120.982361, 24.790542], [120.982464, 24.790487], [120.982437, 24.790462], [120.982383, 24.790211], [120.982326, 24.790112], [120.982255, 24.78998], [120.982167, 24.78997], [120.982121, 24.789816], [120.982121, 24.789578], [120.982104, 24.78946], [120.982092, 24.789376], [120.982068, 24.789318], [120.981983, 24.789234], [120.981877, 24.789051], [120.981816, 24.789019], [120.981774, 24.78892], [120.981664, 24.789035], [120.981551, 24.789209], [120.981485, 24.789225]]}, "properties": {"name": "", "kind": "path", "highway": "path"}}, {"type": "Feature", "geometry": {"type": "LineString", "coordinates": [[120.980727, 24.791442], [120.980773, 24.791577], [120.980844, 24.791686], [120.980902, 24.79177], [120.980952, 24.791944], [120.980958, 24.792], [120.980897, 24.792176], [120.980868, 24.792225], [120.980846, 24.792363], [120.980818, 24.792421], [120.980755, 24.792468], [120.980648, 24.792533], [120.9805, 24.792576], [120.980375, 24.792595], [120.980261, 24.792586], [120.980157, 24.792524], [120.980021, 24.792447], [120.979948, 24.792366], [120.979904, 24.79234], [120.979849, 24.792328], [120.979804, 24.79235], [120.979774, 24.792381], [120.979713, 24.792394], [120.979571, 24.79231], [120.979466, 24.792259]]}, "properties": {"name": "", "kind": "steps", "highway": "steps"}}, {"type": "Feature", "geometry": {"type": "LineString", "coordinates": [[120.980897, 24.792176], [120.981012, 24.792215], [120.98113, 24.792223], [120.981214, 24.792217], [120.981233, 24.792236], [120.981243, 24.792322], [120.981252, 24.7924], [120.981295, 24.792556], [120.981308, 24.792582], [120.981323, 24.792611], [120.981315, 24.79271], [120.981353, 24.792759], [120.981325, 24.792841], [120.981259, 24.792905], [120.981204, 24.792921]]}, "properties": {"name": "", "kind": "steps", "highway": "steps"}}, {"type": "Feature", "geometry": {"type": "LineString", "coordinates": [[120.982142, 24.791255], [120.982073, 24.791358], [120.981919, 24.79141], [120.981813, 24.791742], [120.9819, 24.791925], [120.982015, 24.791811], [120.982095, 24.791801], [120.982176, 24.791801], [120.982244, 24.791835], [120.9823, 24.791865], [120.982352, 24.791817], [120.982496, 24.791759], [120.982596, 24.791703], [120.982717, 24.791679], [120.982757, 24.79168], [120.982813, 24.791696], [120.982876, 24.791727], [120.982935, 24.791844], [120.982987, 24.791908]]}, "properties": {"name": "", "kind": "path", "highway": "footway"}}, {"type": "Feature", "geometry": {"type": "LineString", "coordinates": [[120.985367, 24.792988], [120.98537, 24.792938], [120.985339, 24.792907], [120.985305, 24.792902], [120.985206, 24.792845], [120.985085, 24.79278], [120.984967, 24.792711], [120.98487, 24.79264], [120.984775, 24.792579], [120.984693, 24.792559], [120.98466, 24.792537], [120.984622, 24.792503], [120.984603, 24.792399], [120.9846, 24.792312], [120.984586, 24.792195], [120.984576, 24.792121], [120.984598, 24.792088]]}, "properties": {"name": "", "kind": "path", "highway": "footway"}}, {"type": "Feature", "geometry": {"type": "LineString", "coordinates": [[120.982458, 24.788106], [120.982414, 24.788214], [120.982524, 24.788287], [120.982595, 24.788339], [120.98256, 24.788407]]}, "properties": {"name": "桐花天空之橋", "kind": "path", "highway": "footway"}}, {"type": "Feature", "geometry": {"type": "LineString", "coordinates": [[120.987203, 24.790538], [120.98711, 24.79056], [120.987135, 24.79065], [120.987151, 24.790659]]}, "properties": {"name": "", "kind": "path", "highway": "footway"}}, {"type": "Feature", "geometry": {"type": "LineString", "coordinates": [[120.988494, 24.789962], [120.98846, 24.789866], [120.98846, 24.789817], [120.988467, 24.789665]]}, "properties": {"name": "斑蝶小徑", "kind": "path", "highway": "footway"}}, {"type": "Feature", "geometry": {"type": "LineString", "coordinates": [[120.98311, 24.789453], [120.983158, 24.789525], [120.983194, 24.789584], [120.983209, 24.789608], [120.983223, 24.789643], [120.983262, 24.789676], [120.983297, 24.789703], [120.98333, 24.789727], [120.983395, 24.789772], [120.983433, 24.789819], [120.983453, 24.789848], [120.983488, 24.78989], [120.983484, 24.789914], [120.983461, 24.789971], [120.983462, 24.790012], [120.983435, 24.790044], [120.983418, 24.790169], [120.983396, 24.790222], [120.983381, 24.790221]]}, "properties": {"name": "", "kind": "path", "highway": "path"}}, {"type": "Feature", "geometry": {"type": "LineString", "coordinates": [[120.984701, 24.791811], [120.984943, 24.791591]]}, "properties": {"name": "", "kind": "steps", "highway": "steps"}}, {"type": "Feature", "geometry": {"type": "LineString", "coordinates": [[120.984943, 24.791591], [120.984807, 24.791505], [120.984756, 24.791481], [120.984627, 24.791479], [120.984566, 24.791476], [120.98448, 24.791493], [120.984388, 24.791514], [120.984302, 24.791546], [120.984231, 24.791583], [120.98415, 24.791567]]}, "properties": {"name": "", "kind": "path", "highway": "path"}}, {"type": "Feature", "geometry": {"type": "LineString", "coordinates": [[120.984118, 24.791603], [120.983912, 24.791664], [120.983829, 24.791673], [120.98375, 24.791673], [120.983673, 24.791667], [120.983596, 24.791661]]}, "properties": {"name": "", "kind": "path", "highway": "path"}}, {"type": "Feature", "geometry": {"type": "LineString", "coordinates": [[120.981463, 24.790569], [120.981373, 24.790555], [120.981326, 24.790541], [120.98115, 24.790502], [120.981036, 24.790498], [120.98088, 24.790495], [120.98084, 24.790455], [120.980792, 24.790434], [120.980732, 24.790405], [120.980672, 24.79039], [120.980617, 24.790381], [120.980565, 24.790367]]}, "properties": {"name": "", "kind": "path", "highway": "path"}}, {"type": "Feature", "geometry": {"type": "LineString", "coordinates": [[120.982315, 24.790603], [120.982263, 24.790552], [120.982232, 24.790528], [120.982187, 24.790526], [120.982142, 24.790564], [120.982085, 24.790602], [120.982008, 24.790622], [120.981932, 24.790628], [120.981904, 24.790639], [120.981879, 24.790657]]}, "properties": {"name": "", "kind": "path", "highway": "path"}}, {"type": "Feature", "geometry": {"type": "LineString", "coordinates": [[120.982104, 24.78946], [120.98222, 24.789485], [120.982301, 24.789502], [120.982377, 24.789502], [120.982468, 24.78951], [120.982553, 24.789518], [120.982612, 24.789461], [120.982689, 24.789403], [120.982752, 24.789321], [120.982811, 24.789223], [120.982824, 24.789153], [120.982855, 24.789089]]}, "properties": {"name": "", "kind": "path", "highway": "path"}}, {"type": "Feature", "geometry": {"type": "LineString", "coordinates": [[120.986996, 24.790809], [120.986839, 24.790873], [120.986315, 24.791206], [120.985929, 24.791452], [120.98565, 24.791597], [120.985526, 24.791638], [120.985202, 24.79177], [120.985023, 24.791822], [120.984919, 24.792006], [120.984834, 24.792197], [120.984802, 24.792299], [120.984825, 24.792384], [120.985105, 24.792696], [120.985254, 24.792757], [120.985414, 24.792821], [120.985446, 24.792927], [120.985419, 24.793018], [120.98537, 24.793082], [120.985312, 24.793085], [120.985268, 24.793051], [120.985154, 24.792903], [120.984857, 24.792759], [120.984712, 24.792679], [120.984593, 24.792634], [120.984437, 24.792614], [120.984413, 24.792587], [120.984398, 24.79255], [120.984443, 24.792445], [120.984483, 24.792345], [120.98449, 24.792122], [120.98455, 24.791997], [120.984617, 24.791911], [120.984641, 24.79188], [120.984701, 24.791811], [120.984814, 24.791784], [120.984897, 24.791737], [120.985005, 24.791681], [120.985223, 24.791569], [120.985389, 24.791459], [120.985268, 24.791388], [120.985134, 24.791268], [120.984968, 24.791119], [120.984713, 24.791086], [120.984588, 24.791128], [120.984475, 24.791165], [120.984369, 24.791328], [120.984232, 24.791477], [120.98415, 24.791567], [120.984118, 24.791603], [120.984094, 24.791629], [120.984015, 24.791669], [120.983901, 24.791727], [120.983878, 24.791725], [120.983746, 24.791716], [120.983596, 24.791661], [120.98336, 24.791575], [120.983247, 24.791513], [120.983126, 24.791474], [120.983086, 24.791373], [120.982984, 24.791334], [120.98289, 24.791324], [120.982805, 24.791296], [120.982671, 24.791253], [120.982425, 24.791325], [120.982219, 24.791349], [120.982142, 24.791255], [120.982071, 24.791169], [120.982103, 24.791023], [120.982147, 24.790947], [120.982152, 24.7909], [120.982126, 24.790862], [120.981983, 24.790706], [120.981879, 24.790657], [120.98176, 24.790635], [120.981711, 24.790605], [120.981497, 24.790603], [120.98147, 24.790603], [120.981215, 24.790602], [120.981075, 24.790599], [120.98103, 24.790706], [120.981043, 24.790911], [120.981032, 24.791006], [120.980976, 24.791115], [120.980926, 24.791287], [120.980727, 24.791442], [120.980461, 24.79145], [120.980361, 24.791476], [120.980246, 24.791483], [120.980222, 24.791431], [120.980198, 24.791379], [120.980118, 24.791156], [120.980051, 24.790839], [120.980009, 24.790771], [120.979957, 24.790718], [120.979877, 24.790685], [120.979829, 24.790665], [120.97973, 24.79064], [120.97958, 24.790659], [120.979511, 24.790696], [120.979492, 24.790806], [120.979468, 24.790953], [120.979434, 24.791022], [120.979361, 24.791199], [120.979246, 24.791396], [120.979191, 24.791481], [120.978959, 24.791638], [120.97885, 24.791696], [120.978742, 24.791717], [120.978685, 24.791691], [120.978562, 24.791619], [120.978463, 24.791552]]}, "properties": {"name": "十八尖山步道", "kind": "main", "highway": "pedestrian"}}, {"type": "Feature", "geometry": {"type": "LineString", "coordinates": [[120.98311, 24.789453], [120.983074, 24.789437], [120.983037, 24.789419], [120.982987, 24.789376], [120.982949, 24.789348], [120.982916, 24.789296], [120.98289, 24.78922], [120.982867, 24.789145], [120.982855, 24.789089], [120.982856, 24.789027], [120.982858, 24.788972], [120.982833, 24.788832]]}, "properties": {"name": "桐花步道", "kind": "path", "highway": "footway"}}, {"type": "Feature", "geometry": {"type": "LineString", "coordinates": [[120.984785, 24.790944], [120.984735, 24.790882], [120.98473, 24.790851], [120.984728, 24.790817]]}, "properties": {"name": "", "kind": "path", "highway": "path"}}, {"type": "Feature", "geometry": {"type": "LineString", "coordinates": [[120.981938, 24.792969], [120.981854, 24.793049]]}, "properties": {"name": "", "kind": "steps", "highway": "steps"}}, {"type": "Feature", "geometry": {"type": "LineString", "coordinates": [[120.979262, 24.792105], [120.979313, 24.792095], [120.979364, 24.792185], [120.979388, 24.792304], [120.979422, 24.792298], [120.979466, 24.792259], [120.979574, 24.792119], [120.979939, 24.791861], [120.980072, 24.791801], [120.980089, 24.791751], [120.980114, 24.791707], [120.980146, 24.791666]]}, "properties": {"name": "", "kind": "steps", "highway": "steps"}}, {"type": "Feature", "geometry": {"type": "LineString", "coordinates": [[120.980406, 24.791193], [120.980453, 24.791203], [120.980483, 24.791189], [120.980503, 24.791161], [120.980526, 24.791146], [120.980567, 24.791142], [120.980598, 24.791116], [120.980608, 24.791076], [120.980625, 24.79102], [120.980602, 24.790964], [120.980573, 24.790923], [120.980571, 24.790892], [120.980605, 24.790854], [120.980643, 24.790804]]}, "properties": {"name": "十八尖山步道", "kind": "main", "highway": "steps"}}, {"type": "Feature", "geometry": {"type": "LineString", "coordinates": [[120.980571, 24.790892], [120.980488, 24.790836]]}, "properties": {"name": "", "kind": "steps", "highway": "steps"}}, {"type": "Feature", "geometry": {"type": "LineString", "coordinates": [[120.984786, 24.790747], [120.984738, 24.790788], [120.984728, 24.790817]]}, "properties": {"name": "", "kind": "path", "highway": "path"}}, {"type": "Feature", "geometry": {"type": "LineString", "coordinates": [[120.984735, 24.790882], [120.98465, 24.79097], [120.984612, 24.791054], [120.984588, 24.791128]]}, "properties": {"name": "", "kind": "path", "highway": "path"}}, {"type": "Feature", "geometry": {"type": "LineString", "coordinates": [[120.983878, 24.791725], [120.983926, 24.791779], [120.983989, 24.791837], [120.984049, 24.791855], [120.98412, 24.791836], [120.984151, 24.791829]]}, "properties": {"name": "", "kind": "path", "highway": "path"}}, {"type": "Feature", "geometry": {"type": "LineString", "coordinates": [[120.982986, 24.78926], [120.983033, 24.789286], [120.983076, 24.789307], [120.983103, 24.789335], [120.983121, 24.789369], [120.983148, 24.789412], [120.983142, 24.789431]]}, "properties": {"name": "", "kind": "path", "highway": "path"}}, {"type": "Feature", "geometry": {"type": "LineString", "coordinates": [[120.983482, 24.790219], [120.983396, 24.790222]]}, "properties": {"name": "", "kind": "path", "highway": "path"}}, {"type": "Feature", "geometry": {"type": "LineString", "coordinates": [[120.983381, 24.790221], [120.983341, 24.790231], [120.983321, 24.790226], [120.983312, 24.790212], [120.983309, 24.790222], [120.983319, 24.790233], [120.983325, 24.790243], [120.983317, 24.790255]]}, "properties": {"name": "", "kind": "steps", "highway": "steps"}}, {"type": "Feature", "geometry": {"type": "LineString", "coordinates": [[120.983317, 24.790255], [120.983294, 24.790252], [120.983281, 24.790258], [120.983273, 24.790278], [120.983298, 24.790291], [120.983334, 24.790306], [120.983351, 24.790326], [120.983352, 24.790343], [120.983353, 24.790351], [120.983372, 24.790356], [120.983428, 24.790367], [120.983457, 24.790372], [120.983492, 24.790391], [120.983512, 24.790414], [120.983518, 24.790439], [120.98353, 24.790457]]}, "properties": {"name": "", "kind": "path", "highway": "path"}}, {"type": "Feature", "geometry": {"type": "LineString", "coordinates": [[120.983353, 24.790351], [120.98334, 24.790347], [120.983325, 24.790343], [120.98331, 24.79034], [120.983284, 24.790332], [120.983205, 24.790289], [120.983169, 24.790276], [120.983089, 24.790278], [120.983033, 24.790288], [120.982972, 24.790291], [120.982912, 24.790303], [120.982819, 24.790376], [120.982805, 24.790401], [120.982755, 24.79042], [120.982687, 24.790433], [120.982617, 24.790459], [120.982583, 24.790513], [120.982499, 24.790488], [120.982464, 24.790487]]}, "properties": {"name": "", "kind": "path", "highway": "path"}}, {"type": "Feature", "geometry": {"type": "LineString", "coordinates": [[120.98353, 24.790457], [120.983547, 24.790465], [120.983547, 24.790481], [120.983558, 24.790495], [120.983579, 24.790497], [120.983586, 24.790509], [120.983617, 24.790513], [120.983642, 24.790512]]}, "properties": {"name": "", "kind": "steps", "highway": "steps"}}, {"type": "Feature", "geometry": {"type": "LineString", "coordinates": [[120.983642, 24.790512], [120.983706, 24.790519], [120.983769, 24.790517], [120.98384, 24.790515], [120.983891, 24.790514], [120.983945, 24.790509], [120.983973, 24.790508], [120.984012, 24.790509], [120.984042, 24.79051], [120.984071, 24.790514], [120.984113, 24.790525], [120.984145, 24.79053], [120.98417, 24.790537], [120.984222, 24.790544], [120.98427, 24.790527]]}, "properties": {"name": "", "kind": "path", "highway": "path"}}, {"type": "Feature", "geometry": {"type": "LineString", "coordinates": [[120.984382, 24.790621], [120.98435, 24.790584], [120.984318, 24.790569], [120.984288, 24.790541], [120.98427, 24.790527], [120.984277, 24.790504], [120.984273, 24.790458], [120.984247, 24.790427], [120.984207, 24.790405], [120.984175, 24.790386], [120.984141, 24.790341], [120.984103, 24.790322], [120.984079, 24.790225], [120.984084, 24.79018], [120.98399, 24.790013], [120.983917, 24.789808], [120.983895, 24.789762], [120.983859, 24.789687], [120.983753, 24.78964], [120.983685, 24.789595], [120.983606, 24.789511], [120.983588, 24.78947], [120.983579, 24.78941], [120.983546, 24.789369], [120.983513, 24.789341], [120.983459, 24.789352], [120.983407, 24.789344], [120.983362, 24.78936], [120.983304, 24.789344], [120.983273, 24.789336], [120.983229, 24.789341], [120.98319, 24.789347], [120.983182, 24.789388], [120.983161, 24.78945], [120.98314, 24.789457], [120.983133, 24.789445], [120.983142, 24.789431], [120.983128, 24.789423], [120.98311, 24.789453]]}, "properties": {"name": "", "kind": "path", "highway": "path"}}, {"type": "Feature", "geometry": {"type": "LineString", "coordinates": [[120.984413, 24.790656], [120.984382, 24.790621]]}, "properties": {"name": "", "kind": "steps", "highway": "steps"}}, {"type": "Feature", "geometry": {"type": "LineString", "coordinates": [[120.984728, 24.790817], [120.984649, 24.790761], [120.984595, 24.790716], [120.984554, 24.790691], [120.98451, 24.790683], [120.984455, 24.790677], [120.984413, 24.790656]]}, "properties": {"name": "桐花步道", "kind": "path", "highway": "path"}}, {"type": "Feature", "geometry": {"type": "LineString", "coordinates": [[120.986843, 24.794503], [120.986789, 24.7944], [120.986809, 24.794305], [120.986876, 24.794239], [120.986902, 24.794192], [120.986931, 24.794129], [120.986975, 24.79403], [120.986992, 24.793954], [120.98698, 24.793859], [120.986906, 24.793812]]}, "properties": {"name": "", "kind": "path", "highway": "footway"}}, {"type": "Feature", "geometry": {"type": "LineString", "coordinates": [[120.97885, 24.791696], [120.978941, 24.791811], [120.97901, 24.791968], [120.979115, 24.792133]]}, "properties": {"name": "", "kind": "steps", "highway": "steps"}}, {"type": "Feature", "geometry": {"type": "LineString", "coordinates": [[120.979115, 24.792133], [120.979262, 24.792105]]}, "properties": {"name": "", "kind": "path", "highway": "path"}}, {"type": "Feature", "geometry": {"type": "LineString", "coordinates": [[120.9792, 24.792312], [120.979124, 24.792216], [120.979115, 24.792133]]}, "properties": {"name": "", "kind": "steps", "highway": "steps"}}, {"type": "Feature", "geometry": {"type": "LineString", "coordinates": [[120.979434, 24.791022], [120.979259, 24.791008]]}, "properties": {"name": "", "kind": "steps", "highway": "steps"}}, {"type": "Feature", "geometry": {"type": "LineString", "coordinates": [[120.98176, 24.790635], [120.981747, 24.790689]]}, "properties": {"name": "", "kind": "steps", "highway": "steps"}}, {"type": "Feature", "geometry": {"type": "LineString", "coordinates": [[120.984274, 24.792189], [120.984048, 24.792115], [120.983883, 24.792132]]}, "properties": {"name": "", "kind": "steps", "highway": "steps"}}, {"type": "Feature", "geometry": {"type": "LineString", "coordinates": [[120.982593, 24.794105], [120.982556, 24.794077], [120.982498, 24.794053]]}, "properties": {"name": "", "kind": "path", "highway": "footway"}}, {"type": "Feature", "geometry": {"type": "LineString", "coordinates": [[120.986842, 24.795807], [120.98665, 24.795485], [120.986623, 24.795266], [120.986632, 24.795154], [120.986647, 24.795126]]}, "properties": {"name": "", "kind": "path", "highway": "footway"}}, {"type": "Feature", "geometry": {"type": "LineString", "coordinates": [[120.976747, 24.790307], [120.977059, 24.790217], [120.977219, 24.79017], [120.977496, 24.790046], [120.97817, 24.789668], [120.978456, 24.789518], [120.979207, 24.789216], [120.97944, 24.789092], [120.98, 24.788664], [120.980165, 24.788594], [120.980323, 24.788551], [120.980577, 24.788534], [120.981137, 24.788551], [120.981283, 24.788543], [120.981383, 24.788538], [120.98173, 24.788462], [120.981938, 24.788377], [120.98256, 24.788089], [120.982691, 24.788028], [120.983429, 24.787695], [120.983626, 24.787606], [120.984076, 24.787482], [120.9851, 24.787312], [120.985598, 24.787219], [120.986102, 24.787076], [120.986437, 24.786987], [120.986543, 24.78694], [120.988148, 24.786024]]}, "properties": {"name": "", "kind": "path", "highway": "footway"}}, {"type": "Feature", "geometry": {"type": "LineString", "coordinates": [[120.984237, 24.792374], [120.984258, 24.792413], [120.984275, 24.792466], [120.984264, 24.792501], [120.984258, 24.792542], [120.984254, 24.792581], [120.984252, 24.792599], [120.984277, 24.792605], [120.984316, 24.79259], [120.984361, 24.792565], [120.984398, 24.79255]]}, "properties": {"name": "", "kind": "steps", "highway": "steps"}}, {"type": "Feature", "geometry": {"type": "LineString", "coordinates": [[120.986091, 24.795375], [120.98626, 24.795358], [120.986647, 24.795126]]}, "properties": {"name": "博愛街入口", "kind": "path", "highway": "path"}}, {"type": "Feature", "geometry": {"type": "LineString", "coordinates": [[120.984598, 24.792088], [120.98475, 24.791967], [120.984814, 24.791784], [120.985023, 24.791822]]}, "properties": {"name": "", "kind": "path", "highway": "path"}}, {"type": "Feature", "geometry": {"type": "LineString", "coordinates": [[120.978463, 24.791552], [120.978396, 24.791542], [120.978349, 24.791535], [120.978292, 24.791579], [120.978233, 24.791754], [120.978195, 24.791826], [120.978145, 24.791884], [120.978088, 24.791911], [120.978029, 24.791926], [120.9779, 24.791927], [120.977541, 24.791912], [120.9772, 24.791892]]}, "properties": {"name": "十八尖山步道", "kind": "main", "highway": "service"}}, {"type": "Feature", "geometry": {"type": "LineString", "coordinates": [[120.986647, 24.795126], [120.986653, 24.795029], [120.986656, 24.794986], [120.986707, 24.794857]]}, "properties": {"name": "十八尖山步道", "kind": "main", "highway": "service"}}, {"type": "Feature", "geometry": {"type": "LineString", "coordinates": [[120.981854, 24.793049], [120.981948, 24.793122], [120.981905, 24.793167], [120.98181, 24.793093]]}, "properties": {"name": "", "kind": "steps", "highway": "steps"}}, {"type": "Feature", "geometry": {"type": "LineString", "coordinates": [[120.98181, 24.793093], [120.981735, 24.793166]]}, "properties": {"name": "", "kind": "steps", "highway": "steps"}}, {"type": "Feature", "geometry": {"type": "LineString", "coordinates": [[120.988703, 24.79039], [120.988627, 24.790382], [120.988584, 24.790365], [120.988512, 24.790282], [120.988503, 24.790235], [120.988523, 24.790166]]}, "properties": {"name": "斑蝶小徑", "kind": "path", "highway": "footway"}}, {"type": "Feature", "geometry": {"type": "LineString", "coordinates": [[120.989382, 24.790495], [120.989435, 24.790449], [120.989501, 24.790461], [120.989561, 24.790453], [120.989634, 24.790458], [120.989716, 24.79046], [120.989769, 24.790454]]}, "properties": {"name": "竹林小徑", "kind": "path", "highway": "footway"}}, {"type": "Feature", "geometry": {"type": "LineString", "coordinates": [[120.982987, 24.791908], [120.983021, 24.791942], [120.983094, 24.791998], [120.983155, 24.792074], [120.983174, 24.792161], [120.983192, 24.792261], [120.983189, 24.792353]]}, "properties": {"name": "", "kind": "path", "highway": "path"}}, {"type": "Feature", "geometry": {"type": "LineString", "coordinates": [[120.985268, 24.793051], [120.985343, 24.793028], [120.985367, 24.792988]]}, "properties": {"name": "", "kind": "steps", "highway": "steps"}}, {"type": "Feature", "geometry": {"type": "LineString", "coordinates": [[120.98455, 24.791997], [120.984584, 24.792012], [120.984598, 24.792088]]}, "properties": {"name": "", "kind": "steps", "highway": "steps"}}, {"type": "Feature", "geometry": {"type": "LineString", "coordinates": [[120.983126, 24.791474], [120.983085, 24.791478], [120.982974, 24.791449], [120.982946, 24.791466], [120.982936, 24.791486], [120.982959, 24.791518], [120.983027, 24.791578], [120.983036, 24.79163], [120.983014, 24.791674], [120.982984, 24.791698], [120.98294, 24.791707], [120.982813, 24.791696]]}, "properties": {"name": "", "kind": "path", "highway": "footway"}}, {"type": "Feature", "geometry": {"type": "LineString", "coordinates": [[120.982244, 24.791835], [120.982115, 24.791945], [120.981978, 24.792084], [120.981918, 24.792211], [120.981981, 24.792256], [120.981879, 24.792475], [120.981844, 24.792588], [120.981782, 24.79259]]}, "properties": {"name": "", "kind": "path", "highway": "path"}}, {"type": "Feature", "geometry": {"type": "LineString", "coordinates": [[120.981918, 24.792211], [120.981885, 24.792216], [120.981833, 24.792204], [120.981801, 24.792178], [120.981752, 24.792139], [120.981704, 24.792079], [120.981671, 24.792069], [120.981639, 24.792077], [120.981623, 24.792108], [120.98161, 24.792181], [120.981611, 24.792247], [120.981565, 24.792304], [120.981548, 24.792376], [120.981557, 24.792446], [120.981595, 24.792504], [120.981685, 24.792555]]}, "properties": {"name": "", "kind": "path", "highway": "path"}}, {"type": "Feature", "geometry": {"type": "LineString", "coordinates": [[120.980375, 24.792595], [120.980353, 24.792665]]}, "properties": {"name": "", "kind": "path", "highway": "path"}}, {"type": "Feature", "geometry": {"type": "LineString", "coordinates": [[120.980146, 24.791666], [120.980193, 24.79156], [120.980246, 24.791483]]}, "properties": {"name": "", "kind": "path", "highway": "footway"}}, {"type": "Feature", "geometry": {"type": "LineString", "coordinates": [[120.979877, 24.790685], [120.97979, 24.790924], [120.979756, 24.790969], [120.979724, 24.791047], [120.979709, 24.791298], [120.979639, 24.791493], [120.97952, 24.791601], [120.979427, 24.791764], [120.979342, 24.79185], [120.9793, 24.791945], [120.979313, 24.792095]]}, "properties": {"name": "桂花巷", "kind": "steps", "highway": "steps"}}, {"type": "Feature", "geometry": {"type": "LineString", "coordinates": [[120.981685, 24.792555], [120.981409, 24.792543], [120.981323, 24.792611]]}, "properties": {"name": "", "kind": "path", "highway": "footway"}}, {"type": "Feature", "geometry": {"type": "LineString", "coordinates": [[120.981308, 24.792582], [120.981279, 24.792573], [120.981234, 24.792531], [120.981169, 24.79243], [120.981205, 24.79237], [120.981243, 24.792322]]}, "properties": {"name": "", "kind": "path", "highway": "path"}}, {"type": "Feature", "geometry": {"type": "LineString", "coordinates": [[120.981747, 24.790689], [120.981632, 24.790686], [120.981538, 24.790682], [120.981513, 24.790661], [120.981497, 24.790603]]}, "properties": {"name": "", "kind": "path", "highway": "footway"}}, {"type": "Feature", "geometry": {"type": "LineString", "coordinates": [[120.982466, 24.794234], [120.982508, 24.794111], [120.982498, 24.794053]]}, "properties": {"name": "", "kind": "path", "highway": "pedestrian"}}, {"type": "Feature", "geometry": {"type": "LineString", "coordinates": [[120.981424, 24.793558], [120.981435, 24.793461], [120.981441, 24.793343], [120.981432, 24.793247], [120.98151, 24.793188], [120.981623, 24.793193], [120.981668, 24.793153], [120.98169, 24.793131]]}, "properties": {"name": "", "kind": "path", "highway": "footway"}}, {"type": "Feature", "geometry": {"type": "LineString", "coordinates": [[120.979888, 24.793177], [120.979627, 24.793054], [120.979694, 24.792899], [120.979783, 24.792783], [120.979874, 24.792651], [120.979906, 24.792602], [120.979949, 24.792541]]}, "properties": {"name": "", "kind": "path", "highway": "pedestrian"}}, {"type": "Feature", "geometry": {"type": "LineString", "coordinates": [[120.979783, 24.792783], [120.979858, 24.79282], [120.979869, 24.79279], [120.979944, 24.792777], [120.980088, 24.792789], [120.980261, 24.792817], [120.980466, 24.792895], [120.980615, 24.792953], [120.980791, 24.79298], [120.980927, 24.792982], [120.981076, 24.793001], [120.981265, 24.793035], [120.981416, 24.793092], [120.98151, 24.793188]]}, "properties": {"name": "", "kind": "path", "highway": "footway"}}, {"type": "Feature", "geometry": {"type": "LineString", "coordinates": [[120.982498, 24.794053], [120.982532, 24.794035], [120.982585, 24.794037]]}, "properties": {"name": "", "kind": "path", "highway": "footway"}}, {"type": "Feature", "geometry": {"type": "LineString", "coordinates": [[120.980361, 24.791476], [120.980246, 24.791483], [120.980222, 24.791431], [120.980198, 24.791379], [120.980361, 24.791476]]}, "properties": {"name": "早起會廣場", "kind": "path", "highway": "pedestrian"}}, {"type": "Feature", "geometry": {"type": "LineString", "coordinates": [[120.981326, 24.790541], [120.981195, 24.79044], [120.980979, 24.790306], [120.980905, 24.79019], [120.980807, 24.790034]]}, "properties": {"name": "", "kind": "path", "highway": "path"}}, {"type": "Feature", "geometry": {"type": "LineString", "coordinates": [[120.980539, 24.790403], [120.980484, 24.790361], [120.980385, 24.79033], [120.980218, 24.790291], [120.98015, 24.790297], [120.980075, 24.790289], [120.980038, 24.790298], [120.979897, 24.790403], [120.979839, 24.790422], [120.979715, 24.790416], [120.97967, 24.790406], [120.979574, 24.790434], [120.979434, 24.79052], [120.979335, 24.790606], [120.979232, 24.790656], [120.979118, 24.790693], [120.979063, 24.79071], [120.978928, 24.790737], [120.978854, 24.790736], [120.978722, 24.790674], [120.978598, 24.790617], [120.978549, 24.790598], [120.978433, 24.790601], [120.97837, 24.79069], [120.978323, 24.790716], [120.978228, 24.790708], [120.977953, 24.790857], [120.977907, 24.790923], [120.977884, 24.790941], [120.977694, 24.791029], [120.977586, 24.791126], [120.977466, 24.791117], [120.977414, 24.79112], [120.97736, 24.791166], [120.977294, 24.791264], [120.977246, 24.791314], [120.977122, 24.791343], [120.977108, 24.791394], [120.977137, 24.791429], [120.977345, 24.791619], [120.977466, 24.791688], [120.977577, 24.791758], [120.977579, 24.791824], [120.977541, 24.791912]]}, "properties": {"name": "", "kind": "path", "highway": "path"}}, {"type": "Feature", "geometry": {"type": "LineString", "coordinates": [[120.979232, 24.790656], [120.979152, 24.790735], [120.979131, 24.790749], [120.979089, 24.790775], [120.97905, 24.790837]]}, "properties": {"name": "", "kind": "path", "highway": "path"}}, {"type": "Feature", "geometry": {"type": "LineString", "coordinates": [[120.979715, 24.790416], [120.979711, 24.790511], [120.97973, 24.79064]]}, "properties": {"name": "", "kind": "path", "highway": "path"}}, {"type": "Feature", "geometry": {"type": "LineString", "coordinates": [[120.986473, 24.794989], [120.986444, 24.795078], [120.986435, 24.795104]]}, "properties": {"name": "", "kind": "steps", "highway": "steps"}}, {"type": "Feature", "geometry": {"type": "LineString", "coordinates": [[120.986519, 24.795045], [120.986475, 24.795064], [120.986444, 24.795078]]}, "properties": {"name": "", "kind": "steps", "highway": "steps"}}, {"type": "Feature", "geometry": {"type": "LineString", "coordinates": [[120.986048, 24.794107], [120.986094, 24.794134], [120.986201, 24.794266], [120.986352, 24.794438], [120.98644, 24.794513], [120.986527, 24.794561], [120.986556, 24.794625], [120.986548, 24.79472], [120.9865, 24.794823], [120.986474, 24.794901], [120.986467, 24.794943], [120.986473, 24.794972], [120.986495, 24.795], [120.986495, 24.795017]]}, "properties": {"name": "", "kind": "path", "highway": "path"}}, {"type": "Feature", "geometry": {"type": "LineString", "coordinates": [[120.981639, 24.792077], [120.981544, 24.792085], [120.981433, 24.792239], [120.981399, 24.792391], [120.981409, 24.792543]]}, "properties": {"name": "", "kind": "path", "highway": "path"}}, {"type": "Feature", "geometry": {"type": "LineString", "coordinates": [[120.989399, 24.794465], [120.989482, 24.794453]]}, "properties": {"name": "", "kind": "path", "highway": "footway"}}, {"type": "Feature", "geometry": {"type": "LineString", "coordinates": [[120.980929, 24.789916], [120.980947, 24.789859], [120.980942, 24.789812], [120.980918, 24.789769], [120.980905, 24.789738], [120.9809, 24.789701], [120.980918, 24.789683], [120.980918, 24.78963], [120.980907, 24.789604], [120.980884, 24.789576], [120.980903, 24.789545], [120.980918, 24.789511], [120.980884, 24.789468], [120.980851, 24.789455], [120.980845, 24.789418], [120.980825, 24.789419], [120.980785, 24.789418], [120.980724, 24.789406], [120.980724, 24.789365], [120.980765, 24.789319], [120.980777, 24.789279], [120.980855, 24.789267], [120.980913, 24.78926], [120.980962, 24.789244], [120.980981, 24.789214], [120.981012, 24.789185], [120.981045, 24.789155], [120.981089, 24.789123], [120.981141, 24.789103], [120.981188, 24.789096], [120.981209, 24.789061], [120.981246, 24.789039], [120.981298, 24.789019], [120.981277, 24.788985], [120.981303, 24.78897], [120.981347, 24.788992], [120.981399, 24.789019], [120.981423, 24.789034], [120.981454, 24.789021]]}, "properties": {"name": "", "kind": "path", "highway": "path"}}, {"type": "Feature", "geometry": {"type": "LineString", "coordinates": [[120.97837, 24.79069], [120.978459, 24.790711], [120.978499, 24.790718], [120.978522, 24.79078], [120.978578, 24.790806], [120.978666, 24.790793], [120.978711, 24.790824], [120.978774, 24.79086], [120.978816, 24.790924], [120.978808, 24.790975], [120.978796, 24.791006], [120.978799, 24.791045], [120.978867, 24.791078], [120.978955, 24.791042], [120.97906, 24.791032], [120.979091, 24.790988], [120.979136, 24.790988], [120.979176, 24.790988], [120.97921, 24.790958], [120.979215, 24.790909], [120.979178, 24.790883], [120.979136, 24.790821], [120.979131, 24.790749], [120.979089, 24.790775], [120.979118, 24.790693]]}, "properties": {"name": "", "kind": "path", "highway": "path"}}, {"type": "Feature", "geometry": {"type": "LineString", "coordinates": [[120.980406, 24.791193], [120.98029, 24.791284]]}, "properties": {"name": "十八尖山步道", "kind": "main", "highway": "steps"}}]}